CTC1_L_00231016-03
1 74357U 24021IC  26070.40833333  .00000000  00000+0  00000-0 0  9996
2 74357  55.0000 180.0000 0000000   0.0000   0.0000 12.65579349    19
CTC1_L_00231016-04
1 74358U 22335JK  26070.40833333  .00000000  00000+0  00000-0 0  9993
2 74358  55.0000 180.0000 0000000   0.0000  90.0000 12.65579349    19
CTC1_L_00231017-01
1 74359U 25631BY  26070.40833333  .00000000  00000+0  00000-0 0  9996
2 74359  55.0000 192.0000 0000000   0.0000 192.0000 12.65579349    16
CTC1_L_00231017-02
1 74360U 24200KR  26070.40833333  .00000000  00000+0  00000-0 0  9999
2 74360  55.0000 192.0000 0000000   0.0000 282.0000 12.65579349    18
CTC1_L_00231017-03
1 74361U 23483OI  26070.40833333  .00000000  00000+0  00000-0 0  9992
2 74361  55.0000 192.0000 0000000   0.0000  12.0000 12.65579349    10
CTC1_L_00231017-04
1 74362U 25637AP  26070.40833333  .00000000  00000+0  00000-0 0  9996
2 74362  55.0000 192.0000 0000000   0.0000 102.0000 12.65579349    11
CTC1_L_00231018-01
1 74363U 26893XQ  26070.40833333  .00000000  00000+0  00000-0 0  9992
2 74363  55.0000 204.0000 0000000   0.0000 204.0000 12.65579349    19
CTC1_L_00231018-02
1 74364U 25814CO  26070.40833333  .00000000  00000+0  00000-0 0  9995
2 74364  55.0000 204.0000 0000000   0.0000 294.0000 12.65579349    19
CTC1_L_00231018-03
1 74365U 26873PY  26070.40833333  .00000000  00000+0  00000-0 0  9992
2 74365  55.0000 204.0000 0000000   0.0000  24.0000 12.65579349    11
CTC1_L_00231018-04
1 74366U 22026UF  26070.40833333  .00000000  00000+0  00000-0 0  9999
2 74366  55.0000 204.0000 0000000   0.0000 114.0000 12.65579349    12
CTC1_L_00231019-01
1 74367U 26082TK  26070.40833333  .00000000  00000+0  00000-0 0  9996
2 74367  55.0000 216.0000 0000000   0.0000 216.0000 12.65579349    19
CTC1_L_00231019-02
1 74368U 26841TE  26070.40833333  .00000000  00000+0  00000-0 0  9990
2 74368  55.0000 216.0000 0000000   0.0000 306.0000 12.65579349    10
CTC1_L_00231019-03
1 74369U 22030XG  26070.40833333  .00000000  00000+0  00000-0 0  9997
2 74369  55.0000 216.0000 0000000   0.0000  36.0000 12.65579349    11
CTC1_L_00231019-04
1 74370U 23536WF  26070.40833333  .00000000  00000+0  00000-0 0  9991
2 74370  55.0000 216.0000 0000000   0.0000 126.0000 12.65579349    13
CTC1_L_00231020-01
1 74371U 24986BB  26070.40833333  .00000000  00000+0  00000-0 0  9992
2 74371  55.0000 228.0000 0000000   0.0000 228.0000 12.65579349    10
CTC1_L_00231020-02
1 74372U 26109CM  26070.40833333  .00000000  00000+0  00000-0 0  9992
2 74372  55.0000 228.0000 0000000   0.0000 318.0000 12.65579349    11
CTC1_L_00231020-03
1 74373U 26243XO  26070.40833333  .00000000  00000+0  00000-0 0  9992
2 74373  55.0000 228.0000 0000000   0.0000  48.0000 12.65579349    12
CTC1_L_00231020-04
1 74374U 26357OS  26070.40833333  .00000000  00000+0  00000-0 0  9999
2 74374  55.0000 228.0000 0000000   0.0000 138.0000 12.65579349    13
CTC1_L_00231021-01
1 74375U 25123GA  26070.40833333  .00000000  00000+0  00000-0 0  9990
2 74375  55.0000 240.0000 0000000   0.0000 240.0000 12.65579349    12
CTC1_L_00231021-02
1 74376U 25482RK  26070.40833333  .00000000  00000+0  00000-0 0  9999
2 74376  55.0000 240.0000 0000000   0.0000 330.0000 12.65579349    13
CTC1_L_00231021-03
1 74377U 25168EE  26070.40833333  .00000000  00000+0  00000-0 0  9991
2 74377  55.0000 240.0000 0000000   0.0000  60.0000 12.65579349    14
CTC1_L_00231021-04
1 74378U 24149LJ  26070.40833333  .00000000  00000+0  00000-0 0  9990
2 74378  55.0000 240.0000 0000000   0.0000 150.0000 12.65579349    15
CTC1_L_00231022-01
1 74379U 25667VD  26070.40833333  .00000000  00000+0  00000-0 0  9997
2 74379  55.0000 252.0000 0000000   0.0000 252.0000 12.65579349    12
CTC1_L_00231022-02
1 74380U 24037CW  26070.40833333  .00000000  00000+0  00000-0 0  9999
2 74380  55.0000 252.0000 0000000   0.0000 342.0000 12.65579349    14
CTC1_L_00231022-03
1 74381U 24615TX  26070.40833333  .00000000  00000+0  00000-0 0  9992
2 74381  55.0000 252.0000 0000000   0.0000  72.0000 12.65579349    15
CTC1_L_00231022-04
1 74382U 26863GB  26070.40833333  .00000000  00000+0  00000-0 0  9990
2 74382  55.0000 252.0000 0000000   0.0000 162.0000 12.65579349    16
CTC1_L_00231023-01
1 74383U 24980AB  26070.40833333  .00000000  00000+0  00000-0 0  9999
2 74383  55.0000 264.0000 0000000   0.0000 264.0000 12.65579349    13
CTC1_L_00231023-02
1 74384U 26010XY  26070.40833333  .00000000  00000+0  00000-0 0  9996
2 74384  55.0000 264.0000 0000000   0.0000 354.0000 12.65579349    14
CTC1_L_00231023-03
1 74385U 26428LT  26070.40833333  .00000000  00000+0  00000-0 0  9990
2 74385  55.0000 264.0000 0000000   0.0000  84.0000 12.65579349    15
CTC1_L_00231023-04
1 74386U 26114QN  26070.40833333  .00000000  00000+0  00000-0 0  9993
2 74386  55.0000 264.0000 0000000   0.0000 174.0000 12.65579349    16
CTC1_L_00231024-01
1 74387U 23524BX  26070.40833333  .00000000  00000+0  00000-0 0  9996
2 74387  55.0000 276.0000 0000000   0.0000 276.0000 12.65579349    13
CTC1_L_00231024-02
1 74388U 24117JZ  26070.40833333  .00000000  00000+0  00000-0 0  9996
2 74388  55.0000 276.0000 0000000   0.0000   6.0000 12.65579349    15
CTC1_L_00231024-03
1 74389U 24458GL  26070.40833333  .00000000  00000+0  00000-0 0  9995
2 74389  55.0000 276.0000 0000000   0.0000  96.0000 12.65579349    15
CTC1_L_00231024-04
1 74390U 24229TH  26070.40833333  .00000000  00000+0  00000-0 0  9993
2 74390  55.0000 276.0000 0000000   0.0000 186.0000 12.65579349    17
CTC1_L_00231025-01
1 74391U 26272CN  26070.40833333  .00000000  00000+0  00000-0 0  9994
2 74391  55.0000 288.0000 0000000   0.0000 288.0000 12.65579349    14
CTC1_L_00231025-02
1 74392U 25868GS  26070.40833333  .00000000  00000+0  00000-0 0  9995
2 74392  55.0000 288.0000 0000000   0.0000  18.0000 12.65579349    16
CTC1_L_00231025-03
1 74393U 22221FB  26070.40833333  .00000000  00000+0  00000-0 0  9996
2 74393  55.0000 288.0000 0000000   0.0000 108.0000 12.65579349    17
CTC1_L_00231025-04
1 74394U 26628QU  26070.40833333  .00000000  00000+0  00000-0 0  9992
2 74394  55.0000 288.0000 0000000   0.0000 198.0000 12.65579349    17
CTC1_L_00231026-01
1 74395U 25862NR  26070.40833333  .00000000  00000+0  00000-0 0  9992
2 74395  55.0000 300.0000 0000000   0.0000 300.0000 12.65579349    18
CTC1_L_00231026-02
1 74396U 23598VO  26070.40833333  .00000000  00000+0  00000-0 0  9997
2 74396  55.0000 300.0000 0000000   0.0000  30.0000 12.65579349    19
CTC1_L_00231026-03
1 74397U 23786SB  26070.40833333  .00000000  00000+0  00000-0 0  9997
2 74397  55.0000 300.0000 0000000   0.0000 120.0000 12.65579349    10
CTC1_L_00231026-04
1 74398U 26787AH  26070.40833333  .00000000  00000+0  00000-0 0  9992
2 74398  55.0000 300.0000 0000000   0.0000 210.0000 12.65579349    11
CTC1_L_00231027-01
1 74399U 22355PQ  26070.40833333  .00000000  00000+0  00000-0 0  9990
2 74399  55.0000 312.0000 0000000   0.0000 312.0000 12.65579349    18
CTC1_L_00231027-02
1 74400U 23795LK  26070.40833333  .00000000  00000+0  00000-0 0  9992
2 74400  55.0000 312.0000 0000000   0.0000  42.0000 12.65579349    11
CTC1_L_00231027-03
1 74401U 25401TU  26070.40833333  .00000000  00000+0  00000-0 0  9999
2 74401  55.0000 312.0000 0000000   0.0000 132.0000 12.65579349    12
CTC1_L_00231027-04
1 74402U 23546ET  26070.40833333  .00000000  00000+0  00000-0 0  9998
2 74402  55.0000 312.0000 0000000   0.0000 222.0000 12.65579349    13
CTC1_L_00231028-01
1 74403U 24777VA  26070.40833333  .00000000  00000+0  00000-0 0  9996
2 74403  55.0000 324.0000 0000000   0.0000 324.0000 12.65579349    10
CTC1_L_00231028-02
1 74404U 23424IN  26070.40833333  .00000000  00000+0  00000-0 0  9995
2 74404  55.0000 324.0000 0000000   0.0000  54.0000 12.65579349    11
CTC1_L_00231028-03
1 74405U 23697VX  26070.40833333  .00000000  00000+0  00000-0 0  9998
2 74405  55.0000 324.0000 0000000   0.0000 144.0000 12.65579349    12
CTC1_L_00231028-04
1 74406U 23879BH  26070.40833333  .00000000  00000+0  00000-0 0  9991
2 74406  55.0000 324.0000 0000000   0.0000 234.0000 12.65579349    13
CTC1_L_00231029-01
1 74407U 26100KZ  26070.40833333  .00000000  00000+0  00000-0 0  9992
2 74407  55.0000 336.0000 0000000   0.0000 336.0000 12.65579349    10
CTC1_L_00231029-02
1 74408U 24450VE  26070.40833333  .00000000  00000+0  00000-0 0  9999
2 74408  55.0000 336.0000 0000000   0.0000  66.0000 12.65579349    11
CTC1_L_00231029-03
1 74409U 25305NQ  26070.40833333  .00000000  00000+0  00000-0 0  9990
2 74409  55.0000 336.0000 0000000   0.0000 156.0000 12.65579349    12
CTC1_L_00231029-04
1 74410U 23884TW  26070.40833333  .00000000  00000+0  00000-0 0  9992
2 74410  55.0000 336.0000 0000000   0.0000 246.0000 12.65579349    14
CTC1_L_00231030-01
1 74411U 22436MY  26070.40833333  .00000000  00000+0  00000-0 0  9995
2 74411  55.0000 348.0000 0000000   0.0000 348.0000 12.65579349    11
CTC1_L_00231030-02
1 74412U 23721ZL  26070.40833333  .00000000  00000+0  00000-0 0  9994
2 74412  55.0000 348.0000 0000000   0.0000  78.0000 12.65579349    12
CTC1_L_00231030-03
1 74413U 22756SM  26070.40833333  .00000000  00000+0  00000-0 0  9992
2 74413  55.0000 348.0000 0000000   0.0000 168.0000 12.65579349    13
CTC1_L_00231030-04
1 74414U 25406DU  26070.40833333  .00000000  00000+0  00000-0 0  9998
2 74414  55.0000 348.0000 0000000   0.0000 258.0000 12.65579349    14
